{
 "generated_at": "2026-06-15T10:55:27Z",
 "sources": [
  {
   "name": "CelesTrak",
   "url": "https://celestrak.org/NORAD/elements/",
   "license": "frei verfügbar; Attribution. Ursprünglich USSPACECOM/Space-Track."
  },
  {
   "name": "GCAT (J. McDowell, planet4589.org)",
   "url": "https://planet4589.org/space/gcat/",
   "license": "CC-BY 4.0"
  }
 ],
 "satellites": [
  {
   "norad": 27004,
   "name": "MAROC-TUBSAT",
   "intl": "2001-056D",
   "group": "resource",
   "gcat": {
    "class": null,
    "category": null,
    "owner": null,
    "state": null
   },
   "omm": {
    "OBJECT_NAME": "MAROC-TUBSAT",
    "OBJECT_ID": "2001-056D",
    "EPOCH": "2026-06-15T02:44:14.383968",
    "MEAN_MOTION": 13.70262412,
    "ECCENTRICITY": 0.0020265,
    "INCLINATION": 99.808,
    "RA_OF_ASC_NODE": 342.9345,
    "ARG_OF_PERICENTER": 146.4549,
    "MEAN_ANOMALY": 326.2466,
    "EPHEMERIS_TYPE": 0,
    "CLASSIFICATION_TYPE": "U",
    "NORAD_CAT_ID": 27004,
    "ELEMENT_SET_NO": 999,
    "REV_AT_EPOCH": 22590,
    "BSTAR": 0.000020211,
    "MEAN_MOTION_DOT": -2.9e-7,
    "MEAN_MOTION_DDOT": 0
   }
  },
  {
   "norad": 40069,
   "name": "METEOR-M 2",
   "intl": "2014-037A",
   "group": "weather",
   "gcat": {
    "class": "C",
    "category": "MET",
    "owner": "RGMS/VNIIEMI",
    "state": "RU"
   },
   "omm": {
    "OBJECT_NAME": "METEOR-M 2",
    "OBJECT_ID": "2014-037A",
    "EPOCH": "2026-06-15T04:11:32.470368",
    "MEAN_MOTION": 14.21461531,
    "ECCENTRICITY": 0.0006842,
    "INCLINATION": 98.5106,
    "RA_OF_ASC_NODE": 141.9841,
    "ARG_OF_PERICENTER": 49.3937,
    "MEAN_ANOMALY": 310.7835,
    "EPHEMERIS_TYPE": 0,
    "CLASSIFICATION_TYPE": "U",
    "NORAD_CAT_ID": 40069,
    "ELEMENT_SET_NO": 999,
    "REV_AT_EPOCH": 61903,
    "BSTAR": 0.000076175,
    "MEAN_MOTION_DOT": 0.00000125,
    "MEAN_MOTION_DDOT": 0
   }
  },
  {
   "norad": 44387,
   "name": "METEOR-M2 2",
   "intl": "2019-038A",
   "group": "weather",
   "gcat": {
    "class": "C",
    "category": "MET",
    "owner": "RGMS/VNIIEMI",
    "state": "RU"
   },
   "omm": {
    "OBJECT_NAME": "METEOR-M2 2",
    "OBJECT_ID": "2019-038A",
    "EPOCH": "2026-06-15T04:58:50.863296",
    "MEAN_MOTION": 14.2436627,
    "ECCENTRICITY": 0.0002126,
    "INCLINATION": 98.9136,
    "RA_OF_ASC_NODE": 153.4634,
    "ARG_OF_PERICENTER": 51.7959,
    "MEAN_ANOMALY": 308.3411,
    "EPHEMERIS_TYPE": 0,
    "CLASSIFICATION_TYPE": "U",
    "NORAD_CAT_ID": 44387,
    "ELEMENT_SET_NO": 999,
    "REV_AT_EPOCH": 36101,
    "BSTAR": 0.00010425,
    "MEAN_MOTION_DOT": 0.00000195,
    "MEAN_MOTION_DDOT": 0
   }
  },
  {
   "norad": 57166,
   "name": "METEOR-M2 3",
   "intl": "2023-091A",
   "group": "weather",
   "gcat": {
    "class": "C",
    "category": "MET",
    "owner": "RGMS/VNIIEMI",
    "state": "RU"
   },
   "omm": {
    "OBJECT_NAME": "METEOR-M2 3",
    "OBJECT_ID": "2023-091A",
    "EPOCH": "2026-06-15T04:50:00.041568",
    "MEAN_MOTION": 14.24046652,
    "ECCENTRICITY": 0.0004251,
    "INCLINATION": 98.609,
    "RA_OF_ASC_NODE": 221.2203,
    "ARG_OF_PERICENTER": 160.5973,
    "MEAN_ANOMALY": 199.5369,
    "EPHEMERIS_TYPE": 0,
    "CLASSIFICATION_TYPE": "U",
    "NORAD_CAT_ID": 57166,
    "ELEMENT_SET_NO": 999,
    "REV_AT_EPOCH": 15423,
    "BSTAR": 0.000020243,
    "MEAN_MOTION_DOT": 3e-8,
    "MEAN_MOTION_DDOT": 0
   }
  },
  {
   "norad": 59051,
   "name": "METEOR-M2 4",
   "intl": "2024-039A",
   "group": "weather",
   "gcat": {
    "class": "C",
    "category": "MET",
    "owner": "RGMS/VNIIEMI",
    "state": "RU"
   },
   "omm": {
    "OBJECT_NAME": "METEOR-M2 4",
    "OBJECT_ID": "2024-039A",
    "EPOCH": "2026-06-15T05:07:57.150624",
    "MEAN_MOTION": 14.22429364,
    "ECCENTRICITY": 0.0007178,
    "INCLINATION": 98.701,
    "RA_OF_ASC_NODE": 125.5367,
    "ARG_OF_PERICENTER": 166.5197,
    "MEAN_ANOMALY": 193.6174,
    "EPHEMERIS_TYPE": 0,
    "CLASSIFICATION_TYPE": "U",
    "NORAD_CAT_ID": 59051,
    "ELEMENT_SET_NO": 999,
    "REV_AT_EPOCH": 11898,
    "BSTAR": 0.000018433,
    "MEAN_MOTION_DOT": -3e-8,
    "MEAN_MOTION_DDOT": 0
   }
  },
  {
   "norad": 38552,
   "name": "METEOSAT-10 (MSG-3)",
   "intl": "2012-035B",
   "group": "weather",
   "gcat": {
    "class": "C",
    "category": "MET",
    "owner": "EUMET",
    "state": "I-EUM"
   },
   "omm": {
    "OBJECT_NAME": "METEOSAT-10 (MSG-3)",
    "OBJECT_ID": "2012-035B",
    "EPOCH": "2026-06-15T01:05:02.012352",
    "MEAN_MOTION": 1.00276414,
    "ECCENTRICITY": 0.0001439,
    "INCLINATION": 4.6666,
    "RA_OF_ASC_NODE": 61.0299,
    "ARG_OF_PERICENTER": 327.8693,
    "MEAN_ANOMALY": 251.0167,
    "EPHEMERIS_TYPE": 0,
    "CLASSIFICATION_TYPE": "U",
    "NORAD_CAT_ID": 38552,
    "ELEMENT_SET_NO": 999,
    "REV_AT_EPOCH": 5083,
    "BSTAR": 0,
    "MEAN_MOTION_DOT": -3e-8,
    "MEAN_MOTION_DDOT": 0
   }
  },
  {
   "norad": 40732,
   "name": "METEOSAT-11 (MSG-4)",
   "intl": "2015-034A",
   "group": "weather",
   "gcat": {
    "class": "C",
    "category": "MET",
    "owner": "EUMET",
    "state": "I-EUM"
   },
   "omm": {
    "OBJECT_NAME": "METEOSAT-11 (MSG-4)",
    "OBJECT_ID": "2015-034A",
    "EPOCH": "2026-06-15T04:33:05.607936",
    "MEAN_MOTION": 1.00279741,
    "ECCENTRICITY": 0.0001759,
    "INCLINATION": 3.1965,
    "RA_OF_ASC_NODE": 71.1221,
    "ARG_OF_PERICENTER": 10.4284,
    "MEAN_ANOMALY": 259.8083,
    "EPHEMERIS_TYPE": 0,
    "CLASSIFICATION_TYPE": "U",
    "NORAD_CAT_ID": 40732,
    "ELEMENT_SET_NO": 999,
    "REV_AT_EPOCH": 719,
    "BSTAR": 0,
    "MEAN_MOTION_DOT": 6.7e-7,
    "MEAN_MOTION_DDOT": 0
   }
  },
  {
   "norad": 54743,
   "name": "METEOSAT-12 (MTG-I1)",
   "intl": "2022-170C",
   "group": "weather",
   "gcat": {
    "class": "C",
    "category": "MET",
    "owner": "EUMET",
    "state": "I-EUM"
   },
   "omm": {
    "OBJECT_NAME": "METEOSAT-12 (MTG-I1)",
    "OBJECT_ID": "2022-170C",
    "EPOCH": "2026-06-15T04:30:13.384224",
    "MEAN_MOTION": 1.00272158,
    "ECCENTRICITY": 0.0003133,
    "INCLINATION": 0.736,
    "RA_OF_ASC_NODE": 22.6213,
    "ARG_OF_PERICENTER": 71.8952,
    "MEAN_ANOMALY": 236.0968,
    "EPHEMERIS_TYPE": 0,
    "CLASSIFICATION_TYPE": "U",
    "NORAD_CAT_ID": 54743,
    "ELEMENT_SET_NO": 999,
    "REV_AT_EPOCH": 1295,
    "BSTAR": 0,
    "MEAN_MOTION_DOT": -5e-8,
    "MEAN_MOTION_DDOT": 0
   }
  },
  {
   "norad": 28912,
   "name": "METEOSAT-9 (MSG-2)",
   "intl": "2005-049B",
   "group": "weather",
   "gcat": {
    "class": "C",
    "category": "MET",
    "owner": "EUMET",
    "state": "I-EUM"
   },
   "omm": {
    "OBJECT_NAME": "METEOSAT-9 (MSG-2)",
    "OBJECT_ID": "2005-049B",
    "EPOCH": "2026-06-14T22:59:52.482048",
    "MEAN_MOTION": 1.0027105,
    "ECCENTRICITY": 0.0001586,
    "INCLINATION": 9.3563,
    "RA_OF_ASC_NODE": 54.1897,
    "ARG_OF_PERICENTER": 342.1562,
    "MEAN_ANOMALY": 257.5139,
    "EPHEMERIS_TYPE": 0,
    "CLASSIFICATION_TYPE": "U",
    "NORAD_CAT_ID": 28912,
    "ELEMENT_SET_NO": 999,
    "REV_AT_EPOCH": 697,
    "BSTAR": 0,
    "MEAN_MOTION_DOT": 0.00000122,
    "MEAN_MOTION_DDOT": 0
   }
  },
  {
   "norad": 38771,
   "name": "METOP-B",
   "intl": "2012-049A",
   "group": "weather",
   "gcat": {
    "class": "C",
    "category": "MET",
    "owner": "EUMET",
    "state": "I-EUM"
   },
   "omm": {
    "OBJECT_NAME": "METOP-B",
    "OBJECT_ID": "2012-049A",
    "EPOCH": "2026-06-15T03:33:31.080096",
    "MEAN_MOTION": 14.21432171,
    "ECCENTRICITY": 0.0002356,
    "INCLINATION": 98.6505,
    "RA_OF_ASC_NODE": 217.6881,
    "ARG_OF_PERICENTER": 24.68,
    "MEAN_ANOMALY": 335.449,
    "EPHEMERIS_TYPE": 0,
    "CLASSIFICATION_TYPE": "U",
    "NORAD_CAT_ID": 38771,
    "ELEMENT_SET_NO": 999,
    "REV_AT_EPOCH": 71297,
    "BSTAR": 0.000060794,
    "MEAN_MOTION_DOT": 9e-7,
    "MEAN_MOTION_DDOT": 0
   }
  },
  {
   "norad": 43689,
   "name": "METOP-C",
   "intl": "2018-087A",
   "group": "weather",
   "gcat": {
    "class": "C",
    "category": "MET",
    "owner": "EUMET",
    "state": "I-EUM"
   },
   "omm": {
    "OBJECT_NAME": "METOP-C",
    "OBJECT_ID": "2018-087A",
    "EPOCH": "2026-06-15T04:01:19.519392",
    "MEAN_MOTION": 14.21511586,
    "ECCENTRICITY": 0.0001693,
    "INCLINATION": 98.6645,
    "RA_OF_ASC_NODE": 225.8081,
    "ARG_OF_PERICENTER": 131.9056,
    "MEAN_ANOMALY": 228.2266,
    "EPHEMERIS_TYPE": 0,
    "CLASSIFICATION_TYPE": "U",
    "NORAD_CAT_ID": 43689,
    "ELEMENT_SET_NO": 999,
    "REV_AT_EPOCH": 39454,
    "BSTAR": 0.000059507,
    "MEAN_MOTION_DOT": 8.7e-7,
    "MEAN_MOTION_DDOT": 0
   }
  },
  {
   "norad": 65159,
   "name": "METOP-SGA1",
   "intl": "2025-172A",
   "group": "weather",
   "gcat": {
    "class": "C",
    "category": "MET",
    "owner": "EUMET",
    "state": "I-EUM"
   },
   "omm": {
    "OBJECT_NAME": "METOP-SGA1",
    "OBJECT_ID": "2025-172A",
    "EPOCH": "2026-06-15T04:01:46.889184",
    "MEAN_MOTION": 14.21509481,
    "ECCENTRICITY": 0.0000912,
    "INCLINATION": 98.6644,
    "RA_OF_ASC_NODE": 225.9324,
    "ARG_OF_PERICENTER": 92.7937,
    "MEAN_ANOMALY": 267.3345,
    "EPHEMERIS_TYPE": 0,
    "CLASSIFICATION_TYPE": "U",
    "NORAD_CAT_ID": 65159,
    "ELEMENT_SET_NO": 999,
    "REV_AT_EPOCH": 4350,
    "BSTAR": 0.000038873,
    "MEAN_MOTION_DOT": 4.2e-7,
    "MEAN_MOTION_DDOT": 0
   }
  },
  {
   "norad": 64899,
   "name": "MICROCARB",
   "intl": "2025-156A",
   "group": "resource",
   "gcat": {
    "class": "C",
    "category": "SCI",
    "owner": "CNES",
    "state": "F"
   },
   "omm": {
    "OBJECT_NAME": "MICROCARB",
    "OBJECT_ID": "2025-156A",
    "EPOCH": "2026-06-15T04:17:35.632896",
    "MEAN_MOTION": 14.72323579,
    "ECCENTRICITY": 0.0014986,
    "INCLINATION": 97.9832,
    "RA_OF_ASC_NODE": 243.352,
    "ARG_OF_PERICENTER": 279.2071,
    "MEAN_ANOMALY": 80.7441,
    "EPHEMERIS_TYPE": 0,
    "CLASSIFICATION_TYPE": "U",
    "NORAD_CAT_ID": 64899,
    "ELEMENT_SET_NO": 999,
    "REV_AT_EPOCH": 4767,
    "BSTAR": 0.000076203,
    "MEAN_MOTION_DOT": 0.00000433,
    "MEAN_MOTION_DDOT": 0
   }
  }
 ]
}
